{
"type": "FeatureCollection",
"name": "Hutan Desa",
"crs": { "type": "name", "properties": { "name": "urn:ogc:def:crs:OGC:1.3:CRS84" } },
"features": [
{"type":"Feature","properties":{"OBJECTID":2254.0,"KODE_PROV":72,"KODE_KAB":7201,"HD_ID":720110.0,"NAMA_KEC":"Bualemo","NAMA_DESA":"Sampaka","NAMA_LD":"LPHD SAMPAKA","NO_SK_PPHD":"13580 TAHUN 2024","TGL_SK_PPH":"2024/12/27 00:00:00.000","LUAS_PPHD":4014.0,"NO_SK_PAK_":"-","TGL_SK_PAK":"1900/01/01 00:00:00.000","NAMOBJ":"LPHD SAMPAKA","FCODE":"-","LCODE":"J1016AR","SRS_ID":"GCS_WGS_1984","METADATA":"PPHD_AR_50K","REMARK":"-","Shape_Leng":0.30064557059366398,"Shape_Area":0.0032644187189580002},"geometry":{"type":"MultiPolygon","coordinates":[[[[123.156019211000057,-0.652559280999981,0.0],[123.155351640000049,-0.653377532999968,0.0],[123.154925551000019,-0.653927024999973,0.0],[123.154653549000045,-0.654277801999967,0.0],[123.154225169000028,-0.654881768999928,0.0],[123.154103445000032,-0.655053384999974,0.0],[123.153997421000099,-0.655202865999968,0.0],[123.153671629000087,-0.655989320999936,0.0],[123.153643007000028,-0.656058413999972,0.0],[123.153642654,-0.656059264999953,0.0],[123.153322840000101,-0.656408152999973,0.0],[123.152971268000101,-0.656791686999952,0.0],[123.152920490000042,-0.656817873999955,0.0],[123.152371285000072,-0.657101102999945,0.0],[123.152242661000059,-0.657167435999952,0.0],[123.151637298000082,-0.657141783999975,0.0],[123.151567460000024,-0.657138823999958,0.0],[123.151193700000022,-0.657066407999935,0.0],[123.150888725000073,-0.657007319999934,0.0],[123.150601754000036,-0.656951719999938,0.0],[123.150346755000101,-0.656902313999979,0.0],[123.149793625000029,-0.656703948999962,0.0],[123.149011613000084,-0.656703948999962,0.0],[123.148499139000023,-0.656838809999954,0.0],[123.148286819000077,-0.656894684999941,0.0],[123.147409439000057,-0.657327651999935,0.0],[123.147129275000111,-0.657395799999961,0.0],[123.146562576000065,-0.657533645999933,0.0],[123.146124729,-0.657779715999936,0.0],[123.145608902000049,-0.658069610999974,0.0],[123.145528912000032,-0.658144625999967,0.0],[123.145075747000078,-0.658569602999933,0.0],[123.144811630000049,-0.658817290999934,0.0],[123.144558256000096,-0.658916025999929,0.0],[123.144378209000024,-0.658986185999936,0.0],[123.143739700000083,-0.659235000999956,0.0],[123.14281273000006,-0.659793853999929,0.0],[123.14272084400011,-0.659984875999953,0.0],[123.142450333000056,-0.660547255999973,0.0],[123.142452145000107,-0.660556400999951,0.0],[123.142598067000108,-0.661292799999956,0.0],[123.142614365000099,-0.661375045999932,0.0],[123.142304915000068,-0.661989762999951,0.0],[123.142190934000041,-0.662216186999956,0.0],[123.142136472000061,-0.662596700999927,0.0],[123.142045975000087,-0.663228988999947,0.0],[123.141904831000033,-0.664234160999968,0.0],[123.142011642000057,-0.665075301999934,0.0],[123.142068863000077,-0.66612625199997,0.0],[123.142137528000035,-0.667249679999941,0.0],[123.142255784000099,-0.668174743999941,0.0],[123.142473222000035,-0.669282912999961,0.0],[123.142747879000012,-0.670236587999966,0.0],[123.143007279000017,-0.671436309999933,0.0],[123.143335342000114,-0.672449111999924,0.0],[123.143537522000088,-0.673231124999973,0.0],[123.143757780000101,-0.673364912999943,0.0],[123.144052506000094,-0.673543928999948,0.0],[123.144773483000108,-0.674013138999953,0.0],[123.145296098000017,-0.674631118999969,0.0],[123.145875932000081,-0.675264358999925,0.0],[123.146352769000032,-0.676225661999979,0.0],[123.146730423,-0.677074431999927,0.0],[123.146940231000031,-0.677974699999936,0.0],[123.147073747000036,-0.67905425999993,0.0],[123.147321702000113,-0.679748534999931,0.0],[123.147504807000018,-0.680583953999928,0.0],[123.147729874000106,-0.681356430999926,0.0],[123.148054123000065,-0.682201383999939,0.0],[123.148263931000088,-0.683080672999949,0.0],[123.148683549000111,-0.684061048999979,0.0],[123.149026871000046,-0.684934615999964,0.0],[123.149450302000105,-0.68601608299997,0.0],[123.149793626000019,-0.68680381799993,0.0],[123.149957658000062,-0.687580108999953,0.0],[123.149892808000118,-0.688482284999964,0.0],[123.149942962000068,-0.688867640999945,0.0],[123.150039673000038,-0.689191757999936,0.0],[123.150278714000024,-0.69001532599998,0.0],[123.150360108000086,-0.690295754999966,0.0],[123.150510394000094,-0.690841279999972,0.0],[123.15064811700006,-0.691082000999927,0.0],[123.151254655000116,-0.691877364999925,0.0],[123.151597977000051,-0.693119048999961,0.0],[123.151329260000011,-0.69382627899995,0.0],[123.151250839000113,-0.694032668999967,0.0],[123.15138816800004,-0.695236205999947,0.0],[123.151567461000013,-0.696128844999976,0.0],[123.151746750000029,-0.696962356999961,0.0],[123.151746750000029,-0.697767257999942,0.0],[123.151716232000012,-0.698869704999936,0.0],[123.151659012000096,-0.699853896999969,0.0],[123.151689530000112,-0.700927732999958,0.0],[123.15169099700006,-0.701154014999929,0.0],[123.15169500200011,-0.701771699999938,0.0],[123.151695396000036,-0.701832687999968,0.0],[123.151696823000066,-0.702052748999961,0.0],[123.151588441000058,-0.702696442999979,0.0],[123.151351930000033,-0.70382237299998,0.0],[123.151117547000013,-0.704696236999951,0.0],[123.151054382000098,-0.704931734999946,0.0],[123.150703430000021,-0.706026732999931,0.0],[123.150329590000069,-0.707112369999948,0.0],[123.150091255,-0.707759558999953,0.0],[123.150012366000055,-0.707973774999971,0.0],[123.150022507000017,-0.708955764999928,0.0],[123.149724961000061,-0.709909439999933,0.0],[123.149427415000105,-0.710773467999957,0.0],[123.148801805000062,-0.71163749599998,0.0],[123.148783081000033,-0.711811766999972,0.0],[123.148702622000087,-0.712560653999958,0.0],[123.148643622,-0.712632043999974,0.0],[123.148525703000018,-0.712774725999964,0.0],[123.148352696000075,-0.712984063999954,0.0],[123.148201276,-0.713167282999962,0.0],[123.148130417000061,-0.713253020999957,0.0],[123.14765358000011,-0.71412468099993,0.0],[123.147073746000046,-0.714883803999953,0.0],[123.146920156000078,-0.715151768999931,0.0],[123.146715164000057,-0.715509414999929,0.0],[123.1464176180001,-0.716045379999969,0.0],[123.146150589000058,-0.716732024999942,0.0],[123.145547867000118,-0.717132567999954,0.0],[123.145376205000048,-0.718101500999978,0.0],[123.144807816000025,-0.718847274999973,0.0],[123.144361496000101,-0.719621657999937,0.0],[123.143827438000017,-0.720724105999977,0.0],[123.143259049000108,-0.721736907999968,0.0],[123.142782211000053,-0.722570417999975,0.0],[123.142335891000016,-0.723552703999928,0.0],[123.142026900000019,-0.724521636999953,0.0],[123.141393661000052,-0.725143432999971,0.0],[123.141359328000021,-0.726001739999958,0.0],[123.14116096500004,-0.726608275999979,0.0],[123.140836716000081,-0.727508544999978,0.0],[123.140691758000116,-0.728420257999971,0.0],[123.140484742000012,-0.72901772199998,0.0],[123.140390397000033,-0.729290009999943,0.0],[123.140182759000027,-0.730064050999943,0.0],[123.140089036000063,-0.730413436999925,0.0],[123.140079437000054,-0.731055261999927,0.0],[123.140073775000019,-0.731433867999954,0.0],[123.140024185000016,-0.732221602999971,0.0],[123.140094578000117,-0.732789441999955,0.0],[123.140134411000076,-0.733110754999927,0.0],[123.140073963000077,-0.734238689999927,0.0],[123.139709690000018,-0.735277769999925,0.0],[123.139727443000083,-0.735295161999943,0.0],[123.140051222000011,-0.735305191999942,0.0],[123.140192884000044,-0.735234467999931,0.0],[123.140275955000106,-0.735843656999975,0.0],[123.140375503000087,-0.736232460999929,0.0],[123.140478134000091,-0.736633300999927,0.0],[123.140704171000039,-0.737262434999934,0.0],[123.140821456000026,-0.737588881999955,0.0],[123.141111373000058,-0.738716124999939,0.0],[123.141408920000117,-0.739778518999969,0.0],[123.141433780000057,-0.739810607999971,0.0],[123.141946793000102,-0.74047279399997,0.0],[123.142606735000072,-0.741170882999938,0.0],[123.143129349000105,-0.741790770999955,0.0],[123.143545152000115,-0.742372512999964,0.0],[123.144166946000041,-0.743120192999925,0.0],[123.144382957000062,-0.743193554999948,0.0],[123.144385715000112,-0.744242158999953,0.0],[123.141817592000052,-0.74587,0.0],[123.137347109000075,-0.74740215099996,0.0],[123.13106932200003,-0.74682784099997,0.0],[123.127740189000065,-0.746349186999964,0.0],[123.124696397000093,-0.745487520999973,0.0],[123.120796517000031,-0.743476867999959,0.0],[123.118228274000103,-0.740987423999968,0.0],[123.118207726000037,-0.740114052999957,0.0],[123.118547602000035,-0.739505437999981,0.0],[123.119275192000032,-0.738202545999968,0.0],[123.119744479000019,-0.737362191999978,0.0],[123.120638093000025,-0.73576199799993,0.0],[123.121091129000092,-0.73495074799996,0.0],[123.121586051,-0.734064487999945,0.0],[123.121706224000036,-0.73384929599996,0.0],[123.121958639000013,-0.733397296999954,0.0],[123.122071553000069,-0.733195099999932,0.0],[123.122204145000069,-0.732686831999956,0.0],[123.12230114700003,-0.732314987999928,0.0],[123.123880705000033,-0.726260017999948,0.0],[123.120899174000101,-0.719952939999928,0.0],[123.120565432000035,-0.719246944999952,0.0],[123.120335583000042,-0.718760724999925,0.0],[123.120093154000074,-0.718247891999965,0.0],[123.11996087600005,-0.717968073999941,0.0],[123.119833304000053,-0.717797978999954,0.0],[123.11975553000002,-0.717694278999943,0.0],[123.118267200000105,-0.715709842999956,0.0],[123.117352733000075,-0.714490553999951,0.0],[123.116544684000019,-0.713413155999945,0.0],[123.116103436000117,-0.712824824999927,0.0],[123.113628844000118,-0.709525363999944,0.0],[123.10728065,-0.702439007999942,0.0],[123.105711144000111,-0.683094899999958,0.0],[123.105600678000087,-0.68296911799996,0.0],[123.105490203000045,-0.682843325999954,0.0],[123.105393622000065,-0.682719362999933,0.0],[123.105297032000067,-0.682595398999979,0.0],[123.105200452000076,-0.682471435999958,0.0],[123.105070058000024,-0.682296426999926,0.0],[123.104939666000064,-0.68212141999993,0.0],[123.104814710000028,-0.681940938999958,0.0],[123.104689746000076,-0.681760464999968,0.0],[123.104626966000069,-0.681586667999966,0.0],[123.104564176000054,-0.681412880999972,0.0],[123.104501396000046,-0.68123908299998,0.0],[123.104421710000111,-0.681053136999935,0.0],[123.104342024000061,-0.680867188999969,0.0],[123.104217759000107,-0.680630052999959,0.0],[123.10411948,-0.680497748999926,0.0],[123.104021191000015,-0.68036544399996,0.0],[123.103838842000073,-0.680169962999969,0.0],[123.103680165000014,-0.679917265999961,0.0],[123.103523860000109,-0.679678873999933,0.0],[123.103372295000099,-0.679490538999971,0.0],[123.103242045000115,-0.679299825999976,0.0],[123.103045477000023,-0.679056665999951,0.0],[123.102865492000092,-0.678830197999957,0.0],[123.102649988000053,-0.678601341999979,0.0],[123.102427376000037,-0.678384402999939,0.0],[123.102240282000025,-0.678203224999947,0.0],[123.102119508000101,-0.678095953999957,0.0],[123.101998724000055,-0.677988672999959,0.0],[123.101862554000036,-0.67786708999995,0.0],[123.101726384000017,-0.67774551499997,0.0],[123.101539290000119,-0.677552423999941,0.0],[123.101329406000104,-0.67736687699994,0.0],[123.101132693000068,-0.677098239999964,0.0],[123.101083509000091,-0.676836674999947,0.0],[123.101153658000044,-0.676531263999948,0.0],[123.101230936000093,-0.676340391999929,0.0],[123.101288209000018,-0.676184070999966,0.0],[123.101454974000035,-0.675955858999941,0.0],[123.101524263000101,-0.675735520999979,0.0],[123.101582873000098,-0.67551835699993,0.0],[123.101694762000079,-0.675341407999952,0.0],[123.101809463000109,-0.675150669999937,0.0],[123.101926690000028,-0.674954956999954,0.0],[123.102017314000022,-0.67473976499997,0.0],[123.102118552000093,-0.674533322999935,0.0],[123.102265078000073,-0.674324208999963,0.0],[123.102379637000013,-0.674157980999951,0.0],[123.102418766000028,-0.674098213999969,0.0],[123.102470954000069,-0.674018515999933,0.0],[123.102524256000038,-0.673916777999978,0.0],[123.10261248300003,-0.673787309999966,0.0],[123.102788973000088,-0.673620328999959,0.0],[123.102941531000056,-0.673557436999943,0.0],[123.103087914000071,-0.673443411999926,0.0],[123.103165661000048,-0.673317362999967,0.0],[123.10318725400009,-0.673113083999965,0.0],[123.103204524000034,-0.672917498999936,0.0],[123.103234751000059,-0.672648033999963,0.0],[123.10332990500001,-0.672464109999964,0.0],[123.103416289000052,-0.672342404999938,0.0],[123.103494027000011,-0.672238095999944,0.0],[123.103623603000074,-0.67207293499996,0.0],[123.103705664000017,-0.671951229999934,0.0],[123.1037575900001,-0.671811057999946,0.0],[123.103826700000013,-0.671632852999949,0.0],[123.103904435000118,-0.67143292399993,0.0],[123.103940814000111,-0.67134107499993,0.0],[123.103973580000115,-0.671258337999973,0.0],[123.104051318000074,-0.671062750999965,0.0],[123.104078036000033,-0.670992543999944,0.0],[123.104129054000055,-0.670858470999974,0.0],[123.10421549800003,-0.670649186999924,0.0],[123.104426258000103,-0.670073168999977,0.0],[123.104643966000026,-0.66962622799997,0.0],[123.104763488000117,-0.669200776999958,0.0],[123.105011076000096,-0.66855615299994,0.0],[123.105190364,-0.668122105999942,0.0],[123.105467835000013,-0.667498967999961,0.0],[123.105741041000101,-0.667069215999959,0.0],[123.10606120500006,-0.666622272999973,0.0],[123.106473065000046,-0.666023124999924,0.0],[123.106923518000031,-0.665556484999968,0.0],[123.107209533000059,-0.665281440999934,0.0],[123.107388826000033,-0.665070860999947,0.0],[123.107478472000025,-0.664898960999949,0.0],[123.107610801000078,-0.664490698999941,0.0],[123.107751674000042,-0.664314499999932,0.0],[123.107956580000064,-0.664146894999931,0.0],[123.108127337000042,-0.664030859999968,0.0],[123.108306630000016,-0.663807387999952,0.0],[123.108409079000012,-0.663510860999963,0.0],[123.108468839000011,-0.66325730899996,0.0],[123.108554208000101,-0.662771693999957,0.0],[123.108678001000044,-0.662423596999929,0.0],[123.108895712000049,-0.662109876999978,0.0],[123.109173188000113,-0.66176177799997,0.0],[123.109489087000043,-0.66151681499997,0.0],[123.109907442,-0.661215982999977,0.0],[123.110176382000077,-0.660953832999951,0.0],[123.110458127000015,-0.660644407999939,0.0],[123.110774024000079,-0.660296306999953,0.0],[123.110978928,-0.659961099999975,0.0],[123.111158216000035,-0.659613001999958,0.0],[123.111209433000113,-0.659148874999971,0.0],[123.11125211600006,-0.658830861999945,0.0],[123.111337490000096,-0.658564418999958,0.0],[123.111555201000101,-0.658233508999956,0.0],[123.111678996000023,-0.658044416999928,0.0],[123.111760101000073,-0.657795162999946,0.0],[123.111781438000094,-0.657386903999964,0.0],[123.111828390000028,-0.657098972999961,0.0],[123.111930838000035,-0.656780957999956,0.0],[123.111986327000068,-0.656437159999939,0.0],[123.112029011000118,-0.656196501999943,0.0],[123.112091182000086,-0.656023171999948,0.0],[123.11219549100008,-0.655732372999978,0.0],[123.112694945000044,-0.655010388999926,0.0],[123.112925465000103,-0.65476112999994,0.0],[123.113177327000017,-0.654498978999925,0.0],[123.113506034000011,-0.65428839599997,0.0],[123.114060995000045,-0.654013345999942,0.0],[123.114419581000107,-0.653721110999925,0.0],[123.114739746000055,-0.653390198999944,0.0],[123.115115409000055,-0.65306788099997,0.0],[123.115503878000027,-0.652775644999963,0.0],[123.115845392000097,-0.652577952999934,0.0],[123.116195444000027,-0.65239315499997,0.0],[123.116306175000091,-0.652295132999939,0.0],[123.116443038000057,-0.65217397899994,0.0],[123.11654975700003,-0.651937615999941,0.0],[123.116598220000014,-0.651675068999964,0.0],[123.116639395000107,-0.651452,0.0],[123.1166948770001,-0.650841759999935,0.0],[123.116694865000113,-0.650308874999951,0.0],[123.116699708000056,-0.650188597999943,0.0],[123.116711087000112,-0.649905952999973,0.0],[123.116723855000032,-0.649748369999941,0.0],[123.116758876000063,-0.649316159999955,0.0],[123.11677963000011,-0.64921745099997,0.0],[123.116904574000046,-0.649169576999952,0.0],[123.116960646000052,-0.649148091999962,0.0],[123.117712294000057,-0.649025891999941,0.0],[123.118306462000078,-0.648857343999964,0.0],[123.118504365000035,-0.648801203999938,0.0],[123.118579259000057,-0.648779958999967,0.0],[123.11876734000009,-0.648719879999931,0.0],[123.118854620000093,-0.648692,0.0],[123.118865149000044,-0.648688637999953,0.0],[123.11891314200011,-0.648673306999967,0.0],[123.119441272000017,-0.64850460699995,0.0],[123.119527822,-0.648430047999966,0.0],[123.119602793000013,-0.648365466999962,0.0],[123.119806912000058,-0.648189631999969,0.0],[123.119947515000035,-0.648068511999952,0.0],[123.120080481000059,-0.647953972999971,0.0],[123.120567365000056,-0.647844121999924,0.0],[123.120702049000101,-0.647813734999943,0.0],[123.120932316000108,-0.64766948099998,0.0],[123.121845420000113,-0.64736305699995,0.0],[123.122682434000012,-0.647171535999973,0.0],[123.122860252,-0.647149833999947,0.0],[123.12331494600005,-0.647094339999967,0.0],[123.123656744000073,-0.647052625999947,0.0],[123.123969203000115,-0.647026540999946,0.0],[123.124687469000037,-0.646966579999969,0.0],[123.126475644000038,-0.646966535999979,0.0],[123.128492091000112,-0.646698382999944,0.0],[123.131003161000081,-0.647272820999945,0.0],[123.132601126000054,-0.648115383999937,0.0],[123.1346937080001,-0.649494136999976,0.0],[123.136329728000078,-0.650566497999932,0.0],[123.137276296000095,-0.651546507999967,0.0],[123.137834655,-0.652020741999934,0.0],[123.137846953,-0.652031187999967,0.0],[123.138130757000113,-0.65224068699996,0.0],[123.138458138000033,-0.652482354999961,0.0],[123.139069125000105,-0.652933376999954,0.0],[123.139565633000075,-0.653244355999959,0.0],[123.14112366300003,-0.654220205999934,0.0],[123.142949909000095,-0.655001476999928,0.0],[123.145004426000014,-0.655552940999939,0.0],[123.14628769300009,-0.65608752299994,0.0],[123.14630214400006,-0.656081402999973,0.0],[123.147013385000037,-0.656131599999981,0.0],[123.147406130000036,-0.656159317999936,0.0],[123.148183652000057,-0.655768346999935,0.0],[123.148861111000087,-0.655166665999957,0.0],[123.14892170600001,-0.655093338999961,0.0],[123.148998830000096,-0.655000004999977,0.0],[123.149275786000089,-0.654664844999957,0.0],[123.149409248000097,-0.654503334999958,0.0],[123.149584718000028,-0.654311909999933,0.0],[123.150181483000097,-0.653660889999969,0.0],[123.150300499000082,-0.653485090999936,0.0],[123.150708915000109,-0.652881815999933,0.0],[123.150750150000022,-0.652820908999956,0.0],[123.151053218000015,-0.652904765999949,0.0],[123.151082298,-0.652912812999944,0.0],[123.151719849000074,-0.652195537999944,0.0],[123.151792637000085,-0.652113647999954,0.0],[123.151943413000026,-0.651944016999948,0.0],[123.152350921000107,-0.651402688999951,0.0],[123.152469766000081,-0.651244815999974,0.0],[123.152865686000041,-0.650887611999963,0.0],[123.153307018000078,-0.650489438999955,0.0],[123.153382641,-0.650421209999934,0.0],[123.153451167000071,-0.650359384999945,0.0],[123.154111696000086,-0.650284050999971,0.0],[123.154191380000043,-0.650274962999958,0.0],[123.154902279000112,-0.64976026599993,0.0],[123.154915703000029,-0.64975054599995,0.0],[123.155124843000067,-0.649496502999966,0.0],[123.155626919000042,-0.648886626999968,0.0],[123.155706873000099,-0.648791424999956,0.0],[123.155730166000012,-0.648763688999964,0.0],[123.155861775000062,-0.648606979999954,0.0],[123.156382112000074,-0.647987404999981,0.0],[123.156413305000115,-0.647950262999927,0.0],[123.156475332000014,-0.647880353999938,0.0],[123.156494488000021,-0.647858763999977,0.0],[123.156750492000015,-0.647570240999926,0.0],[123.15695430300002,-0.64734053899997,0.0],[123.157085249000033,-0.647192959999927,0.0],[123.157203880000111,-0.647087458999977,0.0],[123.157332969000095,-0.646972655999946,0.0],[123.157348287000104,-0.646959032999973,0.0],[123.157583333000048,-0.64675,0.0],[123.1578008890001,-0.646706367999968,0.0],[123.157902257000046,-0.646686037999928,0.0],[123.157992111000112,-0.646668017999957,0.0],[123.158165090000011,-0.646633325999971,0.0],[123.158257103000096,-0.646672171999967,0.0],[123.158685390000073,-0.646852991999936,0.0],[123.15879368700007,-0.646898713999974,0.0],[123.159003755000072,-0.646987402999969,0.0],[123.159236198000031,-0.647070904999964,0.0],[123.159643776000053,-0.64721732199996,0.0],[123.159752352000055,-0.64725632699998,0.0],[123.160020247000034,-0.647311449999961,0.0],[123.160161133000088,-0.647340437999958,0.0],[123.16045836100011,-0.647401595999952,0.0],[123.160452107000083,-0.64746815999996,0.0],[123.160398483000108,-0.648038863999943,0.0],[123.160049758000014,-0.648265601999924,0.0],[123.1593952180001,-0.648691175999943,0.0],[123.159189983000033,-0.648913064999931,0.0],[123.158525468000107,-0.649631499999941,0.0],[123.158060076000083,-0.650550842999962,0.0],[123.157262802000105,-0.65109062199997,0.0],[123.157132329000092,-0.651249568999958,0.0],[123.156572342000118,-0.651931762999936,0.0],[123.156079083,-0.652491356999974,0.0],[123.156019211000057,-0.652559280999981,0.0]]]]}}
]
}
