{
    "type": "FeatureCollection",
    "name": "titik_kamera",
    "crs": {
        "type": "name",
        "properties": {
            "name": "urn:ogc:def:crs:OGC:1.3:CRS84"
        }
    },
    "features": [
        {
            "type": "Feature",
            "properties": {
                "nama_kamera": "C2501",
                "anjing": 5,
                "anoa": 9,
                "ayam_hutan": 38,
                "babi_hutan": 1055,
                "babirusa": 0,
                "biawak": 0,
                "bird": 7,
                "bubut_sulawesi": 2,
                "delimukan_sulawesi": 0,
                "elang_alap_ekor_totol": 2,
                "elang_ular_sulawesi": 0,
                "kadal": 0,
                "kangkareng_sulawesi": 0,
                "katak": 0,
                "kehicap_ranting": 0,
                "kelelawar": 0,
                "kingfisher": 0,
                "kupu_kupu": 0,
                "kura_kura": 0,
                "kuskus_beruang": 0,
                "lebah": 2,
                "macaca": 114,
                "maleo": 34,
                "malkoha": 0,
                "mandar_padi_zebra": 0,
                "manusia": 44,
                "musang_sulawesi": 3,
                "musang_tenggalung": 2,
                "pelatuk_kelabu_sulawesi": 0,
                "pelatuk-kelabu sulawesi": 0,
                "rusa": 0,
                "sapi": 0,
                "serak_sulawesi": 0,
                "srigunting_sulawesi": 0,
                "tarsius": 0,
                "tikus": 0,
                "tupai": 24,
                "uncal_sultan": 0
            },
            "geometry": {
                "type": "Point",
                "coordinates": [
                    123.321583,
                    -0.700444
                ]
            }
        },
        {
            "type": "Feature",
            "properties": {
                "nama_kamera": "C2502",
                "anjing": 1,
                "anoa": 96,
                "ayam_hutan": 0,
                "babi_hutan": 421,
                "babirusa": 0,
                "biawak": 0,
                "bird": 0,
                "bubut_sulawesi": 0,
                "delimukan_sulawesi": 0,
                "elang_alap_ekor_totol": 0,
                "elang_ular_sulawesi": 2,
                "kadal": 0,
                "kangkareng_sulawesi": 0,
                "katak": 0,
                "kehicap_ranting": 0,
                "kelelawar": 0,
                "kingfisher": 0,
                "kupu_kupu": 0,
                "kura_kura": 0,
                "kuskus_beruang": 0,
                "lebah": 0,
                "macaca": 170,
                "maleo": 0,
                "malkoha": 1,
                "mandar_padi_zebra": 0,
                "manusia": 160,
                "musang_sulawesi": 0,
                "musang_tenggalung": 0,
                "pelatuk_kelabu_sulawesi": 0,
                "pelatuk-kelabu sulawesi": 0,
                "rusa": 0,
                "sapi": 0,
                "serak_sulawesi": 0,
                "srigunting_sulawesi": 0,
                "tarsius": 0,
                "tikus": 0,
                "tupai": 0,
                "uncal_sultan": 0
            },
            "geometry": {
                "type": "Point",
                "coordinates": [
                    123.32,
                    -0.704028
                ]
            }
        },
        {
            "type": "Feature",
            "properties": {
                "nama_kamera": "C2502b",
                "anjing": 0,
                "anoa": 0,
                "ayam_hutan": 0,
                "babi_hutan": 34,
                "babirusa": 0,
                "biawak": 0,
                "bird": 0,
                "bubut_sulawesi": 0,
                "delimukan_sulawesi": 0,
                "elang_alap_ekor_totol": 0,
                "elang_ular_sulawesi": 0,
                "kadal": 0,
                "kangkareng_sulawesi": 0,
                "katak": 0,
                "kehicap_ranting": 0,
                "kelelawar": 0,
                "kingfisher": 0,
                "kupu_kupu": 0,
                "kura_kura": 0,
                "kuskus_beruang": 0,
                "lebah": 0,
                "macaca": 0,
                "maleo": 0,
                "malkoha": 0,
                "mandar_padi_zebra": 0,
                "manusia": 25,
                "musang_sulawesi": 0,
                "musang_tenggalung": 0,
                "pelatuk_kelabu_sulawesi": 0,
                "pelatuk-kelabu sulawesi": 0,
                "rusa": 1,
                "sapi": 0,
                "serak_sulawesi": 0,
                "srigunting_sulawesi": 0,
                "tarsius": 0,
                "tikus": 0,
                "tupai": 0,
                "uncal_sultan": 0
            },
            "geometry": {
                "type": "Point",
                "coordinates": [
                    123.18525,
                    -0.715139
                ]
            }
        },
        {
            "type": "Feature",
            "properties": {
                "nama_kamera": "C2503",
                "anjing": 0,
                "anoa": 0,
                "ayam_hutan": 0,
                "babi_hutan": 0,
                "babirusa": 0,
                "biawak": 0,
                "bird": 0,
                "bubut_sulawesi": 0,
                "delimukan_sulawesi": 0,
                "elang_alap_ekor_totol": 0,
                "elang_ular_sulawesi": 0,
                "kadal": 0,
                "kangkareng_sulawesi": 0,
                "katak": 0,
                "kehicap_ranting": 0,
                "kelelawar": 0,
                "kingfisher": 0,
                "kupu_kupu": 0,
                "kura_kura": 0,
                "kuskus_beruang": 0,
                "lebah": 0,
                "macaca": 0,
                "maleo": 0,
                "malkoha": 0,
                "mandar_padi_zebra": 0,
                "manusia": 32,
                "musang_sulawesi": 0,
                "musang_tenggalung": 0,
                "pelatuk_kelabu_sulawesi": 0,
                "pelatuk-kelabu sulawesi": 0,
                "rusa": 0,
                "sapi": 4,
                "serak_sulawesi": 0,
                "srigunting_sulawesi": 0,
                "tarsius": 0,
                "tikus": 0,
                "tupai": 0,
                "uncal_sultan": 0
            },
            "geometry": {
                "type": "Point",
                "coordinates": [
                    123.343306,
                    -0.670444
                ]
            }
        },
        {
            "type": "Feature",
            "properties": {
                "nama_kamera": "C2503b",
                "anjing": 0,
                "anoa": 1,
                "ayam_hutan": 1,
                "babi_hutan": 34,
                "babirusa": 0,
                "biawak": 0,
                "bird": 6,
                "bubut_sulawesi": 0,
                "delimukan_sulawesi": 1,
                "elang_alap_ekor_totol": 0,
                "elang_ular_sulawesi": 0,
                "kadal": 3,
                "kangkareng_sulawesi": 0,
                "katak": 1,
                "kehicap_ranting": 1,
                "kelelawar": 1,
                "kingfisher": 0,
                "kupu_kupu": 1,
                "kura_kura": 0,
                "kuskus_beruang": 0,
                "lebah": 1,
                "macaca": 11,
                "maleo": 0,
                "malkoha": 0,
                "mandar_padi_zebra": 0,
                "manusia": 33,
                "musang_sulawesi": 0,
                "musang_tenggalung": 0,
                "pelatuk_kelabu_sulawesi": 0,
                "pelatuk-kelabu sulawesi": 0,
                "rusa": 0,
                "sapi": 0,
                "serak_sulawesi": 0,
                "srigunting_sulawesi": 0,
                "tarsius": 0,
                "tikus": 252,
                "tupai": 253,
                "uncal_sultan": 0
            },
            "geometry": {
                "type": "Point",
                "coordinates": [
                    123.334222,
                    -0.715806
                ]
            }
        },
        {
            "type": "Feature",
            "properties": {
                "nama_kamera": "C2504",
                "anjing": 5,
                "anoa": 0,
                "ayam_hutan": 15,
                "babi_hutan": 112,
                "babirusa": 0,
                "biawak": 0,
                "bird": 0,
                "bubut_sulawesi": 0,
                "delimukan_sulawesi": 0,
                "elang_alap_ekor_totol": 0,
                "elang_ular_sulawesi": 0,
                "kadal": 0,
                "kangkareng_sulawesi": 0,
                "katak": 0,
                "kehicap_ranting": 0,
                "kelelawar": 0,
                "kingfisher": 0,
                "kupu_kupu": 0,
                "kura_kura": 0,
                "kuskus_beruang": 0,
                "lebah": 0,
                "macaca": 498,
                "maleo": 61,
                "malkoha": 6,
                "mandar_padi_zebra": 0,
                "manusia": 47,
                "musang_sulawesi": 4,
                "musang_tenggalung": 0,
                "pelatuk_kelabu_sulawesi": 1,
                "pelatuk-kelabu sulawesi": 0,
                "rusa": 0,
                "sapi": 911,
                "serak_sulawesi": 0,
                "srigunting_sulawesi": 0,
                "tarsius": 1,
                "tikus": 0,
                "tupai": 1,
                "uncal_sultan": 0
            },
            "geometry": {
                "type": "Point",
                "coordinates": [
                    123.339889,
                    -0.644667
                ]
            }
        },
        {
            "type": "Feature",
            "properties": {
                "nama_kamera": "C2504b",
                "anjing": 13,
                "anoa": 0,
                "ayam_hutan": 6,
                "babi_hutan": 0,
                "babirusa": 0,
                "biawak": 10,
                "bird": 56,
                "bubut_sulawesi": 0,
                "delimukan_sulawesi": 0,
                "elang_alap_ekor_totol": 0,
                "elang_ular_sulawesi": 0,
                "kadal": 0,
                "kangkareng_sulawesi": 0,
                "katak": 0,
                "kehicap_ranting": 0,
                "kelelawar": 0,
                "kingfisher": 0,
                "kupu_kupu": 0,
                "kura_kura": 16,
                "kuskus_beruang": 0,
                "lebah": 0,
                "macaca": 0,
                "maleo": 86,
                "malkoha": 0,
                "mandar_padi_zebra": 13,
                "manusia": 21,
                "musang_sulawesi": 0,
                "musang_tenggalung": 2,
                "pelatuk_kelabu_sulawesi": 0,
                "pelatuk-kelabu sulawesi": 0,
                "rusa": 0,
                "sapi": 0,
                "serak_sulawesi": 0,
                "srigunting_sulawesi": 6,
                "tarsius": 0,
                "tikus": 15,
                "tupai": 0,
                "uncal_sultan": 0
            },
            "geometry": {
                "type": "Point",
                "coordinates": [
                    123.370139,
                    -0.648333
                ]
            }
        },
        {
            "type": "Feature",
            "properties": {
                "nama_kamera": "C2504c",
                "anjing": 0,
                "anoa": 0,
                "ayam_hutan": 0,
                "babi_hutan": 0,
                "babirusa": 4,
                "biawak": 0,
                "bird": 0,
                "bubut_sulawesi": 0,
                "delimukan_sulawesi": 0,
                "elang_alap_ekor_totol": 0,
                "elang_ular_sulawesi": 0,
                "kadal": 0,
                "kangkareng_sulawesi": 0,
                "katak": 0,
                "kehicap_ranting": 0,
                "kelelawar": 0,
                "kingfisher": 0,
                "kupu_kupu": 0,
                "kura_kura": 0,
                "kuskus_beruang": 0,
                "lebah": 0,
                "macaca": 32,
                "maleo": 0,
                "malkoha": 0,
                "mandar_padi_zebra": 0,
                "manusia": 7,
                "musang_sulawesi": 0,
                "musang_tenggalung": 0,
                "pelatuk_kelabu_sulawesi": 0,
                "pelatuk-kelabu sulawesi": 0,
                "rusa": 0,
                "sapi": 0,
                "serak_sulawesi": 0,
                "srigunting_sulawesi": 0,
                "tarsius": 0,
                "tikus": 0,
                "tupai": 0,
                "uncal_sultan": 0
            },
            "geometry": {
                "type": "Point",
                "coordinates": [
                    123.120739,
                    -0.646633
                ]
            }
        },
        {
            "type": "Feature",
            "properties": {
                "nama_kamera": "C2505",
                "anjing": 0,
                "anoa": 25,
                "ayam_hutan": 3,
                "babi_hutan": 30,
                "babirusa": 0,
                "biawak": 0,
                "bird": 1,
                "bubut_sulawesi": 0,
                "delimukan_sulawesi": 0,
                "elang_alap_ekor_totol": 0,
                "elang_ular_sulawesi": 0,
                "kadal": 0,
                "kangkareng_sulawesi": 1,
                "katak": 0,
                "kehicap_ranting": 0,
                "kelelawar": 0,
                "kingfisher": 0,
                "kupu_kupu": 0,
                "kura_kura": 0,
                "kuskus_beruang": 0,
                "lebah": 0,
                "macaca": 239,
                "maleo": 53,
                "malkoha": 0,
                "mandar_padi_zebra": 0,
                "manusia": 74,
                "musang_sulawesi": 0,
                "musang_tenggalung": 0,
                "pelatuk_kelabu_sulawesi": 0,
                "pelatuk-kelabu sulawesi": 0,
                "rusa": 0,
                "sapi": 0,
                "serak_sulawesi": 0,
                "srigunting_sulawesi": 0,
                "tarsius": 1,
                "tikus": 0,
                "tupai": 0,
                "uncal_sultan": 0
            },
            "geometry": {
                "type": "Point",
                "coordinates": [
                    123.355583,
                    -0.728222
                ]
            }
        },
        {
            "type": "Feature",
            "properties": {
                "nama_kamera": "C2506",
                "anjing": 1,
                "anoa": 0,
                "ayam_hutan": 39,
                "babi_hutan": 12,
                "babirusa": 0,
                "biawak": 0,
                "bird": 0,
                "bubut_sulawesi": 0,
                "delimukan_sulawesi": 0,
                "elang_alap_ekor_totol": 0,
                "elang_ular_sulawesi": 0,
                "kadal": 0,
                "kangkareng_sulawesi": 0,
                "katak": 0,
                "kehicap_ranting": 0,
                "kelelawar": 0,
                "kingfisher": 0,
                "kupu_kupu": 0,
                "kura_kura": 0,
                "kuskus_beruang": 0,
                "lebah": 0,
                "macaca": 65,
                "maleo": 0,
                "malkoha": 0,
                "mandar_padi_zebra": 0,
                "manusia": 77,
                "musang_sulawesi": 0,
                "musang_tenggalung": 1,
                "pelatuk_kelabu_sulawesi": 0,
                "pelatuk-kelabu sulawesi": 0,
                "rusa": 0,
                "sapi": 25,
                "serak_sulawesi": 0,
                "srigunting_sulawesi": 0,
                "tarsius": 0,
                "tikus": 0,
                "tupai": 0,
                "uncal_sultan": 0
            },
            "geometry": {
                "type": "Point",
                "coordinates": [
                    123.365944,
                    -0.690111
                ]
            }
        },
        {
            "type": "Feature",
            "properties": {
                "nama_kamera": "C2506b",
                "anjing": 0,
                "anoa": 30,
                "ayam_hutan": 17,
                "babi_hutan": 388,
                "babirusa": 22,
                "biawak": 0,
                "bird": 0,
                "bubut_sulawesi": 0,
                "delimukan_sulawesi": 0,
                "elang_alap_ekor_totol": 0,
                "elang_ular_sulawesi": 0,
                "kadal": 0,
                "kangkareng_sulawesi": 0,
                "katak": 0,
                "kehicap_ranting": 0,
                "kelelawar": 0,
                "kingfisher": 0,
                "kupu_kupu": 0,
                "kura_kura": 0,
                "kuskus_beruang": 1,
                "lebah": 0,
                "macaca": 2163,
                "maleo": 2,
                "malkoha": 3,
                "mandar_padi_zebra": 0,
                "manusia": 53,
                "musang_sulawesi": 1,
                "musang_tenggalung": 0,
                "pelatuk_kelabu_sulawesi": 0,
                "pelatuk-kelabu sulawesi": 0,
                "rusa": 6,
                "sapi": 0,
                "serak_sulawesi": 0,
                "srigunting_sulawesi": 1,
                "tarsius": 0,
                "tikus": 5,
                "tupai": 8,
                "uncal_sultan": 0
            },
            "geometry": {
                "type": "Point",
                "coordinates": [
                    123.199083,
                    -0.715917
                ]
            }
        },
        {
            "type": "Feature",
            "properties": {
                "nama_kamera": "C2507",
                "anjing": 2,
                "anoa": 0,
                "ayam_hutan": 0,
                "babi_hutan": 2,
                "babirusa": 0,
                "biawak": 0,
                "bird": 0,
                "bubut_sulawesi": 0,
                "delimukan_sulawesi": 0,
                "elang_alap_ekor_totol": 0,
                "elang_ular_sulawesi": 0,
                "kadal": 0,
                "kangkareng_sulawesi": 0,
                "katak": 0,
                "kehicap_ranting": 0,
                "kelelawar": 0,
                "kingfisher": 0,
                "kupu_kupu": 0,
                "kura_kura": 0,
                "kuskus_beruang": 0,
                "lebah": 0,
                "macaca": 69,
                "maleo": 11,
                "malkoha": 0,
                "mandar_padi_zebra": 0,
                "manusia": 199,
                "musang_sulawesi": 1,
                "musang_tenggalung": 0,
                "pelatuk_kelabu_sulawesi": 0,
                "pelatuk-kelabu sulawesi": 0,
                "rusa": 0,
                "sapi": 0,
                "serak_sulawesi": 0,
                "srigunting_sulawesi": 0,
                "tarsius": 1,
                "tikus": 0,
                "tupai": 0,
                "uncal_sultan": 0
            },
            "geometry": {
                "type": "Point",
                "coordinates": [
                    123.398556,
                    -0.735
                ]
            }
        },
        {
            "type": "Feature",
            "properties": {
                "nama_kamera": "C2507b",
                "anjing": 0,
                "anoa": 2,
                "ayam_hutan": 0,
                "babi_hutan": 56,
                "babirusa": 0,
                "biawak": 0,
                "bird": 0,
                "bubut_sulawesi": 0,
                "delimukan_sulawesi": 0,
                "elang_alap_ekor_totol": 0,
                "elang_ular_sulawesi": 0,
                "kadal": 0,
                "kangkareng_sulawesi": 0,
                "katak": 0,
                "kehicap_ranting": 0,
                "kelelawar": 0,
                "kingfisher": 0,
                "kupu_kupu": 0,
                "kura_kura": 0,
                "kuskus_beruang": 0,
                "lebah": 0,
                "macaca": 473,
                "maleo": 82,
                "malkoha": 0,
                "mandar_padi_zebra": 0,
                "manusia": 33,
                "musang_sulawesi": 0,
                "musang_tenggalung": 0,
                "pelatuk_kelabu_sulawesi": 0,
                "pelatuk-kelabu sulawesi": 0,
                "rusa": 101,
                "sapi": 0,
                "serak_sulawesi": 0,
                "srigunting_sulawesi": 0,
                "tarsius": 0,
                "tikus": 63,
                "tupai": 11,
                "uncal_sultan": 0
            },
            "geometry": {
                "type": "Point",
                "coordinates": [
                    123.194333,
                    -0.716
                ]
            }
        },
        {
            "type": "Feature",
            "properties": {
                "nama_kamera": "C2508",
                "anjing": 6,
                "anoa": 0,
                "ayam_hutan": 1,
                "babi_hutan": 71,
                "babirusa": 0,
                "biawak": 0,
                "bird": 0,
                "bubut_sulawesi": 0,
                "delimukan_sulawesi": 0,
                "elang_alap_ekor_totol": 0,
                "elang_ular_sulawesi": 0,
                "kadal": 0,
                "kangkareng_sulawesi": 0,
                "katak": 0,
                "kehicap_ranting": 0,
                "kelelawar": 0,
                "kingfisher": 0,
                "kupu_kupu": 0,
                "kura_kura": 0,
                "kuskus_beruang": 2,
                "lebah": 0,
                "macaca": 562,
                "maleo": 74,
                "malkoha": 0,
                "mandar_padi_zebra": 0,
                "manusia": 58,
                "musang_sulawesi": 0,
                "musang_tenggalung": 0,
                "pelatuk_kelabu_sulawesi": 0,
                "pelatuk-kelabu sulawesi": 0,
                "rusa": 0,
                "sapi": 24,
                "serak_sulawesi": 0,
                "srigunting_sulawesi": 0,
                "tarsius": 0,
                "tikus": 0,
                "tupai": 0,
                "uncal_sultan": 0
            },
            "geometry": {
                "type": "Point",
                "coordinates": [
                    123.291639,
                    -0.647806
                ]
            }
        },
        {
            "type": "Feature",
            "properties": {
                "nama_kamera": "C2509",
                "anjing": 2,
                "anoa": 0,
                "ayam_hutan": 0,
                "babi_hutan": 1357,
                "babirusa": 0,
                "biawak": 0,
                "bird": 0,
                "bubut_sulawesi": 0,
                "delimukan_sulawesi": 0,
                "elang_alap_ekor_totol": 0,
                "elang_ular_sulawesi": 1,
                "kadal": 0,
                "kangkareng_sulawesi": 0,
                "katak": 0,
                "kehicap_ranting": 0,
                "kelelawar": 0,
                "kingfisher": 0,
                "kupu_kupu": 0,
                "kura_kura": 0,
                "kuskus_beruang": 0,
                "lebah": 0,
                "macaca": 699,
                "maleo": 0,
                "malkoha": 8,
                "mandar_padi_zebra": 0,
                "manusia": 52,
                "musang_sulawesi": 5,
                "musang_tenggalung": 0,
                "pelatuk_kelabu_sulawesi": 0,
                "pelatuk-kelabu sulawesi": 0,
                "rusa": 0,
                "sapi": 196,
                "serak_sulawesi": 0,
                "srigunting_sulawesi": 0,
                "tarsius": 5,
                "tikus": 0,
                "tupai": 1,
                "uncal_sultan": 0
            },
            "geometry": {
                "type": "Point",
                "coordinates": [
                    123.333444,
                    -0.668778
                ]
            }
        },
        {
            "type": "Feature",
            "properties": {
                "nama_kamera": "C2510",
                "anjing": 2,
                "anoa": 216,
                "ayam_hutan": 14,
                "babi_hutan": 1745,
                "babirusa": 0,
                "biawak": 0,
                "bird": 1,
                "bubut_sulawesi": 0,
                "delimukan_sulawesi": 0,
                "elang_alap_ekor_totol": 0,
                "elang_ular_sulawesi": 0,
                "kadal": 0,
                "kangkareng_sulawesi": 0,
                "katak": 0,
                "kehicap_ranting": 0,
                "kelelawar": 0,
                "kingfisher": 0,
                "kupu_kupu": 0,
                "kura_kura": 0,
                "kuskus_beruang": 0,
                "lebah": 0,
                "macaca": 322,
                "maleo": 0,
                "malkoha": 0,
                "mandar_padi_zebra": 0,
                "manusia": 68,
                "musang_sulawesi": 1,
                "musang_tenggalung": 0,
                "pelatuk_kelabu_sulawesi": 0,
                "pelatuk-kelabu sulawesi": 0,
                "rusa": 0,
                "sapi": 0,
                "serak_sulawesi": 0,
                "srigunting_sulawesi": 0,
                "tarsius": 1,
                "tikus": 0,
                "tupai": 1,
                "uncal_sultan": 0
            },
            "geometry": {
                "type": "Point",
                "coordinates": [
                    123.368694,
                    -0.736611
                ]
            }
        },
        {
            "type": "Feature",
            "properties": {
                "nama_kamera": "C2601",
                "anjing": 0,
                "anoa": 20,
                "ayam_hutan": 5,
                "babi_hutan": 260,
                "babirusa": 47,
                "biawak": 0,
                "bird": 0,
                "bubut_sulawesi": 0,
                "delimukan_sulawesi": 0,
                "elang_alap_ekor_totol": 1,
                "elang_ular_sulawesi": 4,
                "kadal": 0,
                "kangkareng_sulawesi": 0,
                "katak": 1,
                "kehicap_ranting": 0,
                "kelelawar": 5,
                "kingfisher": 0,
                "kupu_kupu": 0,
                "kura_kura": 0,
                "kuskus_beruang": 0,
                "lebah": 0,
                "macaca": 3301,
                "maleo": 4,
                "malkoha": 0,
                "mandar_padi_zebra": 0,
                "manusia": 14,
                "musang_sulawesi": 35,
                "musang_tenggalung": 9,
                "pelatuk_kelabu_sulawesi": 0,
                "pelatuk-kelabu sulawesi": 0,
                "rusa": 168,
                "sapi": 0,
                "serak_sulawesi": 0,
                "srigunting_sulawesi": 0,
                "tarsius": 0,
                "tikus": 18,
                "tupai": 0,
                "uncal_sultan": 0
            },
            "geometry": {
                "type": "Point",
                "coordinates": [
                    123.258667,
                    -0.711639
                ]
            }
        },
        {
            "type": "Feature",
            "properties": {
                "nama_kamera": "C2602",
                "anjing": 0,
                "anoa": 34,
                "ayam_hutan": 8,
                "babi_hutan": 51,
                "babirusa": 26,
                "biawak": 1,
                "bird": 1,
                "bubut_sulawesi": 0,
                "delimukan_sulawesi": 2,
                "elang_alap_ekor_totol": 0,
                "elang_ular_sulawesi": 6,
                "kadal": 0,
                "kangkareng_sulawesi": 0,
                "katak": 0,
                "kehicap_ranting": 0,
                "kelelawar": 0,
                "kingfisher": 0,
                "kupu_kupu": 0,
                "kura_kura": 0,
                "kuskus_beruang": 0,
                "lebah": 0,
                "macaca": 656,
                "maleo": 13,
                "malkoha": 0,
                "mandar_padi_zebra": 0,
                "manusia": 20,
                "musang_sulawesi": 5,
                "musang_tenggalung": 1,
                "pelatuk_kelabu_sulawesi": 0,
                "pelatuk-kelabu sulawesi": 0,
                "rusa": 11,
                "sapi": 0,
                "serak_sulawesi": 0,
                "srigunting_sulawesi": 0,
                "tarsius": 0,
                "tikus": 22,
                "tupai": 4,
                "uncal_sultan": 0
            },
            "geometry": {
                "type": "Point",
                "coordinates": [
                    123.250833,
                    -0.718556
                ]
            }
        },
        {
            "type": "Feature",
            "properties": {
                "nama_kamera": "C2603",
                "anjing": 0,
                "anoa": 77,
                "ayam_hutan": 1,
                "babi_hutan": 339,
                "babirusa": 51,
                "biawak": 0,
                "bird": 2,
                "bubut_sulawesi": 6,
                "delimukan_sulawesi": 0,
                "elang_alap_ekor_totol": 10,
                "elang_ular_sulawesi": 23,
                "kadal": 0,
                "kangkareng_sulawesi": 0,
                "katak": 2,
                "kehicap_ranting": 8,
                "kelelawar": 97,
                "kingfisher": 0,
                "kupu_kupu": 0,
                "kura_kura": 0,
                "kuskus_beruang": 0,
                "lebah": 2,
                "macaca": 971,
                "maleo": 9,
                "malkoha": 74,
                "mandar_padi_zebra": 0,
                "manusia": 3,
                "musang_sulawesi": 8,
                "musang_tenggalung": 0,
                "pelatuk_kelabu_sulawesi": 0,
                "pelatuk-kelabu sulawesi": 1,
                "rusa": 31,
                "sapi": 0,
                "serak_sulawesi": 15,
                "srigunting_sulawesi": 21,
                "tarsius": 0,
                "tikus": 32,
                "tupai": 6,
                "uncal_sultan": 2
            },
            "geometry": {
                "type": "Point",
                "coordinates": [
                    123.259222,
                    -0.740139
                ]
            }
        },
        {
            "type": "Feature",
            "properties": {
                "nama_kamera": "C2604",
                "anjing": 0,
                "anoa": 84,
                "ayam_hutan": 0,
                "babi_hutan": 5,
                "babirusa": 8,
                "biawak": 0,
                "bird": 3,
                "bubut_sulawesi": 0,
                "delimukan_sulawesi": 0,
                "elang_alap_ekor_totol": 0,
                "elang_ular_sulawesi": 0,
                "kadal": 0,
                "kangkareng_sulawesi": 0,
                "katak": 0,
                "kehicap_ranting": 0,
                "kelelawar": 1,
                "kingfisher": 0,
                "kupu_kupu": 0,
                "kura_kura": 0,
                "kuskus_beruang": 0,
                "lebah": 3,
                "macaca": 33,
                "maleo": 0,
                "malkoha": 0,
                "mandar_padi_zebra": 0,
                "manusia": 14,
                "musang_sulawesi": 0,
                "musang_tenggalung": 0,
                "pelatuk_kelabu_sulawesi": 0,
                "pelatuk-kelabu sulawesi": 0,
                "rusa": 105,
                "sapi": 0,
                "serak_sulawesi": 0,
                "srigunting_sulawesi": 0,
                "tarsius": 0,
                "tikus": 2,
                "tupai": 0,
                "uncal_sultan": 0
            },
            "geometry": {
                "type": "Point",
                "coordinates": [
                    123.252472,
                    -0.733417
                ]
            }
        }
    ]
}